{"fetched_at":"2026-03-30T06:02:59Z","count":15439,"tles":[{"name":"GLOBAL-16","line1":"1 49950U 21120B   26087.92328653  .00027950  00000+0  55428-3 0  9993","line2":"2 49950  41.9955 168.4819 0008631  33.0762 327.0619 15.46409081242406","category":"Other"}]}